SL-8 R/B                
1 19257U 88053B   26071.30163498  .00000298  00000+0  10515-3 0  9991
2 19257  74.0456 107.6515 0021469 286.5687 151.0905 14.38917564976978
COSMOS 1975             
1 19573U 88093A   26071.14769814  .00006913  00000+0  25059-3 0  9991
2 19573  82.5182 115.2177 0012400 155.1171 205.0669 15.28107769 19784
SL-14 R/B               
1 19574U 88093B   26071.29932079  .00000749  00000+0  83359-4 0  9992
2 19574  82.5310  39.5938 0021581  33.2673  83.1539 14.85660399  1400
SL-16 R/B               
1 19650U 88102B   26071.30651569  .00000282  00000+0  16673-3 0  9998
2 19650  70.9999 145.9917 0014137 357.5135   2.5915 14.16153853927262
INTERCOSMOS 24          
1 20261U 89080A   26071.10599846  .00000766  00000+0  22806-3 0  9993
2 20261  82.6022 102.8305 1186680 287.2065  60.2687 12.59561642667102
SL-14 R/B               
1 20262U 89080C   26071.27650643  .00000660  00000+0  19364-3 0  9993
2 20262  82.5974 171.5263 1230648 178.8389 181.6078 12.50497375660479
DELTA 1 R/B             
1 20323U 89089B   26071.17294727  .00000410  00000+0  10965-3 0  9997
2 20323  97.0704 278.2168 0070568 114.2803 246.5788 14.50665274896090
ARIANE 40 R/B           
1 20443U 90005H   26071.17622715  .00000324  00000+0  11667-3 0  9996
2 20443  98.3078 131.7635 0010005 190.9929 169.1042 14.39872407893166
DELTA 2 R/B(1)          
1 20453U 90008B   26071.32570836  .00063321  00000+0  73192-3 0  9990
2 20453  35.6034 157.5488 0084577 283.0537  76.0768 15.56355952926540
COSMOS 2058             
1 20465U 90010A   26071.29648128  .00004828  00000+0  28453-3 0  9999
2 20465  82.4669  44.8592 0008956 335.9544  24.1267 15.11348167942630
SL-14 R/B               
1 20466U 90010B   26071.04752635  .00000457  00000+0  52505-4 0  9992
2 20466  82.4986 265.1732 0018438 293.9836  65.9448 14.83570863928838
SL-14 R/B               
1 20511U 90018B   26070.86510415  .00000590  00000+0  70923-4 0  9990
2 20511  82.5207 221.0560 0017653  85.4792 274.8438 14.82147386922900
HST                     
1 20580U 90037B   26071.22647860  .00008646  00000+0  28559-3 0  9990
2 20580  28.4723  22.6938 0001818 150.2149 209.8550 15.29528665773705
SL-16 R/B               
1 20625U 90046B   26071.03002069 -.00000183  00000+0 -69834-4 0  9997
2 20625  70.9984 292.9996 0016246 296.4241  63.5214 14.15011596848720
COSMOS 2084             
1 20663U 90055A   26071.04645392  .00002576  00000+0  19090-3 0  9996
2 20663  62.7917 327.5405 0016713 190.5750 169.5001 15.05666234936673
SL-6 R/B(2)             
1 20666U 90055D   26070.89931024  .00002340  00000+0  18378-3 0  9998
2 20666  62.7824 246.3360 0025157 347.5743  12.4732 15.03606413938523
SL-8 R/B                
1 20775U 90078B   26070.99460346  .00015814  00000+0  46583-3 0  9998
2 20775  82.9005 249.2375 0361733   6.2478 354.3067 14.89145616809649
